[{"OBJECT_NAME":"STARLINK-30705","OBJECT_ID":"2023-148L","EPOCH":"2026-03-09T07:32:53.511936","MEAN_MOTION":15.30188481,"ECCENTRICITY":8.879e-5,"INCLINATION":53.1615,"RA_OF_ASC_NODE":26.1215,"ARG_OF_PERICENTER":94.163,"MEAN_ANOMALY":265.9473,"EPHEMERIS_TYPE":0,"CLASSIFICATION_TYPE":"U","NORAD_CAT_ID":57945,"ELEMENT_SET_NO":999,"REV_AT_EPOCH":13836,"BSTAR":2.4785645e-5,"MEAN_MOTION_DOT":3.75e-6,"MEAN_MOTION_DDOT":0},{"OBJECT_NAME":"PROTOMETHEE","OBJECT_ID":"2023-174BT","EPOCH":"2026-03-09T23:28:08.029344","MEAN_MOTION":15.30202663,"ECCENTRICITY":0.00088339,"INCLINATION":97.3826,"RA_OF_ASC_NODE":147.9552,"ARG_OF_PERICENTER":148.5993,"MEAN_ANOMALY":211.5776,"EPHEMERIS_TYPE":0,"CLASSIFICATION_TYPE":"U","NORAD_CAT_ID":58321,"ELEMENT_SET_NO":999,"REV_AT_EPOCH":12979,"BSTAR":0.00015715731,"MEAN_MOTION_DOT":4.52e-5,"MEAN_MOTION_DDOT":0}]
